NORAD_CAT_ID,OBJECT_NAME,OBJECT_TYPE,EPOCH,MEAN_MOTION,ECCENTRICITY,INCLINATION,RA_OF_ASC_NODE,ARG_OF_PERICENTER,MEAN_ANOMALY,BSTAR,MEAN_MOTION_DOT,MEAN_MOTION_DDOT,TLE_LINE0,TLE_LINE1,TLE_LINE2,SEMIMAJOR_AXIS,PERIOD,APOGEE,PERIGEE,DECAYED
52467.0,STARLINK-3873,PAYLOAD,2022-07-08 14:00:01,15.34875896,0.000161,53.2174,316.2154,42.3177,257.0265,-0.033851,-0.01066007,0.0,0 STARLINK-3873,1 52467U 22049S   22189.58334491 -.01066007  00000-0 -33851-1 0  9993,2 52467  53.2174 316.2154 0001610  42.3177 257.0265 15.34875896 10084,6839.426,93.819,462.392,460.19,0.0
52467.0,STARLINK-3873,PAYLOAD,2022-07-08 22:00:01,15.34119389,0.0001385,53.2171,314.6561,47.4298,294.3955,-0.034854,-0.01070847,0.0,0 STARLINK-3873,1 52467U 22049S   22189.91668981 -.01070847  00000-0 -34854-1 0  9995,2 52467  53.2171 314.6561 0001385  47.4298 294.3955 15.34119389  1307,6841.674,93.865,464.487,462.592,0.0
52467.0,STARLINK-3873,PAYLOAD,2022-07-09 06:00:00,15.33355606,0.0001351,53.2172,313.0972,48.7813,334.4882,-0.03549,-0.01064704,0.0,0 STARLINK-3873,1 52467U 22049S   22190.25001157 -.01064704  00000-0 -35490-1 0  9992,2 52467  53.2172 313.0972 0001351  48.7813 334.4882 15.33355606 10181,6843.946,93.912,466.736,464.887,0.0
52467.0,STARLINK-3873,PAYLOAD,2022-07-09 14:00:01,15.32598772,0.0001913,53.2175,311.5435,31.5553,32.3047,-0.03648,-0.01068271,0.0,0 STARLINK-3873,1 52467U 22049S   22190.58334491 -.01068271  00000-0 -36480-1 0  9991,2 52467  53.2175 311.5435 0001913  31.5553  32.3047 15.32598772  1309,6846.199000000001,93.958,469.374,466.754,0.0
52467.0,STARLINK-3873,PAYLOAD,2022-07-09 20:00:01,15.32028226,0.0001322,53.2171,310.3783,51.4868,312.2187,-0.037043,-0.01065498,0.0,0 STARLINK-3873,1 52467U 22049S   22190.83334491 -.01065498  00000-0 -37043-1 0  9993,2 52467  53.2171 310.3783 0001322  51.4868 312.2187 15.32028226  1309,6847.899,93.993,470.669,468.858,0.0
52467.0,STARLINK-3873,PAYLOAD,2022-07-10 06:00:00,15.31079283,0.0001587,53.2173,308.4361,49.6399,92.6691,-0.038262,-0.0106806,0.0,0 STARLINK-3873,1 52467U 22049S   22191.25001157 -.01068060  00000-0 -38262-1 0  9992,2 52467  53.2173 308.4361 0001587  49.6399  92.6691 15.31079283 10332,6850.728,94.051,473.68,471.506,0.0
52467.0,STARLINK-3873,PAYLOAD,2022-07-10 14:00:01,15.30318215,0.0001804,53.2173,306.8876,44.4537,135.7094,-0.03905,-0.01064773,0.0,0 STARLINK-3873,1 52467U 22049S   22191.58334491 -.01064773  00000-0 -39050-1 0  9991,2 52467  53.2173 306.8876 0001804  44.4537 135.7094 15.30318215  1307,6852.999,94.098,476.1,473.628,0.0
52467.0,STARLINK-3873,PAYLOAD,2022-07-10 22:00:00,15.29560749,0.0001515,53.2171,305.339,57.8064,159.2984,-0.04011,-0.01067865,0.0,0 STARLINK-3873,1 52467U 22049S   22191.91667824 -.01067865  00000-0 -40110-1 0  9991,2 52467  53.2171 305.3390 0001515  57.8064 159.2984 15.29560749  1300,6855.261,94.145,478.165,476.088,0.0
52467.0,STARLINK-3873,PAYLOAD,2022-07-11 06:00:00,15.28799793,0.0001499,53.2173,303.7908,55.2634,197.8722,-0.040983,-0.01065873,0.0,0 STARLINK-3873,1 52467U 22049S   22192.25001157 -.01065873  00000-0 -40983-1 0  9995,2 52467  53.2173 303.7908 0001499  55.2634 197.8722 15.28799793 10495,6857.536,94.192,480.429,478.37300000000016,0.0
52467.0,STARLINK-3873,PAYLOAD,2022-07-11 14:00:01,15.28040149,0.0001713,53.2173,302.248,41.4548,246.7963,-0.041916,-0.01065036,0.0,0 STARLINK-3873,1 52467U 22049S   22192.58334491 -.01065036  00000-0 -41916-1 0  9999,2 52467  53.2173 302.2480 0001713  41.4548 246.7963 15.28040149  1309,6859.809,94.238,482.849,480.499,0.0
52467.0,STARLINK-3873,PAYLOAD,2022-07-11 22:00:00,15.27282917,0.0001377,53.2172,300.7045,52.6064,269.8485,-0.043076,-0.01068954,0.0,0 STARLINK-3873,1 52467U 22049S   22192.91667824 -.01068954  00000-0 -43076-1 0  9996,2 52467  53.2172 300.7045 0001377  52.6064 269.8485 15.27282917  1306,6862.076,94.285,484.886,482.996,0.0
52467.0,STARLINK-3873,PAYLOAD,2022-07-12 06:00:00,15.26519535,0.0001426,53.2173,299.1620000000001,48.9444,306.8040000000001,-0.043802,-0.0106251,0.0,0 STARLINK-3873,1 52467U 22049S   22193.25001157 -.01062510  00000-0 -43802-1 0  9994,2 52467  53.2173 299.1620 0001426  48.9444 306.8040 15.26519535 10646,6864.363,94.332,487.207,485.249,0.0
52467.0,STARLINK-3873,PAYLOAD,2022-07-12 14:00:01,15.257636499999998,0.0001661,53.2173,297.6244,39.5907,348.5341,-0.045075,-0.01068106,0.0,0 STARLINK-3873,1 52467U 22049S   22193.58334491 -.01068106  00000-0 -45075-1 0  9991,2 52467  53.2173 297.6244 0001661  39.5907 348.5341 15.25763650  1300,6866.63,94.379,489.636,487.355,0.0
52467.0,STARLINK-3873,PAYLOAD,2022-07-12 22:00:00,15.25002851,0.0001474,53.2172,296.0861,47.791,11.8009,-0.046025,-0.01065951,0.0,0 STARLINK-3873,1 52467U 22049S   22193.91667824 -.01065951  00000-0 -46025-1 0  9998,2 52467  53.2172 296.0861 0001474  47.7910  11.8009 15.25002851  1304,6868.9140000000025,94.426,491.791,489.766,0.0
52467.0,STARLINK-3873,PAYLOAD,2022-07-13 06:00:00,15.24241895,0.0001578,53.2174,294.5489,47.5269,42.6195,-0.046967,-0.01063373,0.0,0 STARLINK-3873,1 52467U 22049S   22194.25001157 -.01063373  00000-0 -46967-1 0  9998,2 52467  53.2174 294.5489 0001578  47.5269  42.6195 15.24241895 10798,6871.2,94.473,494.149,491.981,0.0
52467.0,STARLINK-3873,PAYLOAD,2022-07-13 14:00:01,15.23484217,0.0001806,53.2174,293.0169,42.264,77.5215,-0.048192,-0.01066379,0.0,0 STARLINK-3873,1 52467U 22049S   22194.58334491 -.01066379  00000-0 -48192-1 0  9995,2 52467  53.2174 293.0169 0001806  42.2640  77.5215 15.23484217  1309,6873.478,94.52,496.584,494.101,0.0
52467.0,STARLINK-3873,PAYLOAD,2022-07-13 22:00:00,15.22723545,0.0001591,53.2173,291.4838,52.0079,96.5068,-0.049193,-0.01064237,0.0,0 STARLINK-3873,1 52467U 22049S   22194.91667824 -.01064237  00000-0 -49193-1 0  9994,2 52467  53.2173 291.4838 0001591  52.0079  96.5068 15.22723545  1305,6875.767,94.567,498.726,496.538,0.0
52467.0,STARLINK-3873,PAYLOAD,2022-07-14 08:00:01,15.21773796,0.0001486999999999,53.2175,289.5703,56.5246,216.6168,-0.050531,-0.01062878,0.0,0 STARLINK-3873,1 52467U 22049S   22195.33334491 -.01062878  00000-0 -50531-1 0  9999,2 52467  53.2175 289.5703 0001487  56.5246 216.6168 15.21773796 10965,6878.627,94.626,501.515,499.469,0.0
52467.0,STARLINK-3873,PAYLOAD,2022-07-14 14:00:01,15.21203817,0.0001793,53.2174,288.4253,46.999,156.2334,-0.05138,-0.01062751,0.0,0 STARLINK-3873,1 52467U 22049S   22195.58334491 -.01062751  00000-0 -51380-1 0  9999,2 52467  53.2174 288.4253 0001793  46.9990 156.2334 15.21203817  1305,6880.345,94.662,503.444,500.977,0.0
52467.0,STARLINK-3873,PAYLOAD,2022-07-14 22:00:00,15.20445932,0.0001506999999999,53.2174,286.8975,60.3446,168.8782,-0.052695,-0.01065571,0.0,0 STARLINK-3873,1 52467U 22049S   22195.91667824 -.01065571  00000-0 -52695-1 0  9998,2 52467  53.2174 286.8975 0001507  60.3446 168.8782 15.20445932  1308,6882.632,94.709,505.534,503.459,0.0
52467.0,STARLINK-3873,PAYLOAD,2022-07-15 06:00:00,15.19684628,0.000157,53.2175,285.3714,54.2324,200.0685,-0.053665,-0.01061598,0.0,0 STARLINK-3873,1 52467U 22049S   22196.25001157 -.01061598  00000-0 -53665-1 0  9990,2 52467  53.2175 285.3714 0001570  54.2324 200.0685 15.19684628 11106,6884.93,94.757,507.876,505.714,0.0
52467.0,STARLINK-3873,PAYLOAD,2022-07-15 14:00:01,15.18925387,0.0001898,53.2175,283.8499,37.4099,241.0547,-0.054909,-0.0106239,0.0,0 STARLINK-3873,1 52467U 22049S   22196.58334491 -.01062390  00000-0 -54909-1 0  9999,2 52467  53.2175 283.8499 0001898  37.4099 241.0547 15.18925387  1306,6887.224,94.804,510.396,507.782,0.0
52467.0,STARLINK-3873,PAYLOAD,2022-07-15 22:00:00,15.18167814,0.0001375,53.2173,282.3271,59.3297,242.3874,-0.056363,-0.01079862,0.0,0 STARLINK-3873,1 52467U 22049S   22196.91667824 -.01079862  00000-0 -56363-1 0  9993,2 52467  53.2173 282.3271 0001375  59.3297 242.3874 15.18167814  1309,6889.515,94.851,512.327,510.4330000000001,0.0
52467.0,STARLINK-3873,PAYLOAD,2022-07-16 06:00:00,15.174053,0.0001489,53.2176,280.8065,50.5454,273.5122,-0.057252,-0.01073485,0.0,0 STARLINK-3873,1 52467U 22049S   22197.25001157 -.01073485  00000-0 -57252-1 0  9995,2 52467  53.2176 280.8065 0001489  50.5454 273.5122 15.17405300 11251,6891.823,94.899,514.714,512.6619999999998,0.0
52467.0,STARLINK-3873,PAYLOAD,2022-07-16 14:00:01,15.16647615,0.0001745,53.2175,279.2903,38.5063,306.9765,-0.058724,-0.01077089,0.0,0 STARLINK-3873,1 52467U 22049S   22197.58334491 -.01077089  00000-0 -58724-1 0  9990,2 52467  53.2175 279.2903 0001745  38.5063 306.9765 15.16647615  1305,6894.118,94.946,517.186,514.78,0.0
52467.0,STARLINK-3873,PAYLOAD,2022-07-16 22:00:00,15.15888872,0.0001440999999999,53.2174,277.7727,50.6423,315.3555,-0.060148,-0.01079241,0.0,0 STARLINK-3873,1 52467U 22049S   22197.91667824 -.01079241  00000-0 -60148-1 0  9991,2 52467  53.2174 277.7727 0001441  50.6423 315.3555 15.15888872  1301,6896.418000000002,94.994,519.2769999999998,517.29,0.0
52467.0,STARLINK-3873,PAYLOAD,2022-07-17 06:00:00,15.15126572,0.0001428,53.2176,276.2578,51.2689,334.3312,-0.061109,-0.01073334,0.0,0 STARLINK-3873,1 52467U 22049S   22198.25001157 -.01073334  00000-0 -61109-1 0  9995,2 52467  53.2176 276.2578 0001428  51.2689 334.3312 15.15126572 11403,6898.731,95.042,521.581,519.611,0.0
52467.0,STARLINK-3873,PAYLOAD,2022-07-17 14:00:01,15.14369003,0.0001710999999999,53.2176,274.7467,40.9046,3.3828,-0.062674,-0.01077119,0.0,0 STARLINK-3873,1 52467U 22049S   22198.58334491 -.01077119  00000-0 -62674-1 0  9994,2 52467  53.2176 274.7467 0001711  40.9046   3.3828 15.14369003  1300,6901.031999999997,95.089,524.078,521.716,0.0
52467.0,STARLINK-3873,PAYLOAD,2022-07-17 22:00:00,15.13609084,0.0001662,53.2175,273.2343,41.9539,20.1109,-0.064025,-0.01076922,0.0,0 STARLINK-3873,1 52467U 22049S   22198.91667824 -.01076922  00000-0 -64025-1 0  9993,2 52467  53.2175 273.2343 0001662  41.9539  20.1109 15.13609084  1303,6903.340999999999,95.137,526.354,524.059,0.0
